NORAD_CAT_ID,OBJECT_NAME,OBJECT_TYPE,EPOCH,MEAN_MOTION,ECCENTRICITY,INCLINATION,RA_OF_ASC_NODE,ARG_OF_PERICENTER,MEAN_ANOMALY,BSTAR,MEAN_MOTION_DOT,MEAN_MOTION_DDOT,TLE_LINE0,TLE_LINE1,TLE_LINE2,SEMIMAJOR_AXIS,PERIOD,APOGEE,PERIGEE,DECAYED
52632.0,STARLINK-3995,PAYLOAD,2022-06-28 22:00:00,15.73193457,0.0002558,53.214,216.4996,9.5089,28.6887,-0.00024712,-0.00035155,0.0,0 STARLINK-3995,1 52632U 22052AL  22179.91667824 -.00035155  00000-0 -24712-3 0  9993,2 52632  53.2140 216.4996 0002558   9.5089  28.6887 15.73193457  1301,6727.9140000000025,91.534,351.5,348.05800000000005,0.0
52632.0,STARLINK-3995,PAYLOAD,2022-06-29 14:00:01,15.73168922,0.0002913,53.2134,213.2025,9.4985,206.5025,0.00044311,0.00061953,0.0,0 STARLINK-3995,1 52632U 22052AL  22180.58334491  .00061953  00000-0  44311-3 0  9999,2 52632  53.2134 213.2025 0002913   9.4985 206.5025 15.73168922  1301,6727.984,91.535,351.809,347.889,0.0
52632.0,STARLINK-3995,PAYLOAD,2022-06-29 22:00:00,15.73177816,0.0002655,53.2134,211.551,11.2483,293.6740000000001,0.00045777,0.00064062,0.0,0 STARLINK-3995,1 52632U 22052AL  22180.91667824  .00064062  00000-0  45777-3 0  9996,2 52632  53.2134 211.5510 0002655  11.2483 293.6740 15.73177816  1301,6727.958000000001,91.534,351.61,348.037,0.0
52632.0,STARLINK-3995,PAYLOAD,2022-06-30 04:00:00,15.73231552,0.0002651,53.2137,210.3142,13.2723,268.3394,7.5504e-05,0.00010002,0.0,0 STARLINK-3995,1 52632U 22052AL  22181.16667824  .00010002  00000-0  75504-4 0  9991,2 52632  53.2137 210.3142 0002651  13.2723 268.3394 15.73231552  7675,6727.805,91.531,351.454,347.88699999999994,0.0
52632.0,STARLINK-3995,PAYLOAD,2022-06-30 14:00:01,15.73230281,0.0003,53.2134,208.2537,14.4002,108.4194,-0.00030117,-0.00042741,0.0,0 STARLINK-3995,1 52632U 22052AL  22181.58334491 -.00042741  00000-0 -30117-3 0  9995,2 52632  53.2134 208.2537 0003000  14.4002 108.4194 15.73230281  1302,6727.809,91.531,351.69199999999995,347.655,0.0
52632.0,STARLINK-3995,PAYLOAD,2022-06-30 22:00:00,15.73173452,0.0002795,53.2138,206.6017,18.8395,192.9417,0.00049078,0.00068753,0.0,0 STARLINK-3995,1 52632U 22052AL  22181.91667824  .00068753  00000-0  49078-3 0  9996,2 52632  53.2138 206.6017 0002795  18.8395 192.9417 15.73173452  1306,6727.971,91.535,351.716,347.955,0.0
52632.0,STARLINK-3995,PAYLOAD,2022-07-01 04:00:00,15.73238632,0.0002799,53.2153,205.3635,20.5978,167.866,-0.00016526,-0.00023793,0.0,0 STARLINK-3995,1 52632U 22052AL  22182.16667824 -.00023793  00000-0 -16526-3 0  9993,2 52632  53.2153 205.3635 0002799  20.5978 167.8660 15.73238632  7833,6727.785,91.531,351.533,347.767,0.0
52632.0,STARLINK-3995,PAYLOAD,2022-07-01 14:00:01,15.73163561,0.0002695,53.2161,203.3026,16.3561,13.3192,-0.0051494,-0.00667889,0.0,0 STARLINK-3995,1 52632U 22052AL  22182.58334491 -.00667889  00000-0 -51494-2 0  9992,2 52632  53.2161 203.3026 0002695  16.3561  13.3192 15.73163561  1309,6727.999,91.535,351.677,348.051,0.0
52632.0,STARLINK-3995,PAYLOAD,2022-07-01 22:00:00,15.72703918,0.0002762,53.2172,201.6516,12.2498,106.0367,-0.0085,-0.01051784,0.0,0 STARLINK-3995,1 52632U 22052AL  22182.91667824 -.01051784  00000-0 -85000-2 0  9990,2 52632  53.2172 201.6516 0002762  12.2498 106.0367 15.72703918  1304,6729.31,91.562,353.034,349.316,0.0
52632.0,STARLINK-3995,PAYLOAD,2022-07-02 14:00:01,15.71187119,0.0002224,53.2171,198.3627,12.4352,280.6729,-0.009086,-0.01053293,0.0,0 STARLINK-3995,1 52632U 22052AL  22183.58334491 -.01053293  00000-0 -90860-2 0  9992,2 52632  53.2171 198.3627 0002224  12.4352 280.6729 15.71187119  1301,6733.64,91.65,357.00300000000016,354.0080000000001,0.0
52632.0,STARLINK-3995,PAYLOAD,2022-07-02 22:00:00,15.70425771,0.000295,53.2173,196.7181,350.8384,28.315,-0.0093632,-0.01051577,0.0,0 STARLINK-3995,1 52632U 22052AL  22183.91667824 -.01051577  00000-0 -93632-2 0  9991,2 52632  53.2173 196.7181 0002950 350.8384  28.3150 15.70425771  1303,6735.816,91.695,359.668,355.694,0.0
52632.0,STARLINK-3995,PAYLOAD,2022-07-03 04:00:00,15.69854045,0.0004063,53.2175,195.4882,301.9143,51.1721,-0.0095365,-0.01046735,0.0,0 STARLINK-3995,1 52632U 22052AL  22184.16667824 -.01046735  00000-0 -95365-2 0  9994,2 52632  53.2175 195.4882 0004063 301.9143  51.1721 15.69854045  8141,6737.4519999999975,91.728,362.054,356.579,0.0
52632.0,STARLINK-3995,PAYLOAD,2022-07-03 14:00:01,15.68911979,3.66e-05,53.2172,193.4402,50.8633,137.6358,-0.010064,-0.01058924,0.0,0 STARLINK-3995,1 52632U 22052AL  22184.58334491 -.01058924  00000-0 -10064-1 0  9996,2 52632  53.2172 193.4402 0000366  50.8633 137.6358 15.68911979  1306,6740.148,91.783,362.26,361.767,0.0
52632.0,STARLINK-3995,PAYLOAD,2022-07-03 22:00:00,15.68146859,0.0001117,53.2173,191.8012,74.2842,197.5223,-0.010282,-0.01049436,0.0,0 STARLINK-3995,1 52632U 22052AL  22184.91667824 -.01049436  00000-0 -10282-1 0  9992,2 52632  53.2173 191.8012 0001117  74.2842 197.5223 15.68146859  1306,6742.340999999999,91.828,364.959,363.452,0.0
52632.0,STARLINK-3995,PAYLOAD,2022-07-04 12:00:00,15.66818019,9.83e-05,53.2172,188.9433,86.5433,238.8493,-0.010841,-0.01047858,0.0,0 STARLINK-3995,1 52632U 22052AL  22185.50001157 -.01047858  00000-0 -10841-1 0  9996,2 52632  53.2172 188.9433 0000983  86.5433 238.8493 15.66818019  8353,6746.151999999999,91.906,368.68,367.354,0.0
52632.0,STARLINK-3995,PAYLOAD,2022-07-04 14:00:01,15.66629815,0.0001038,53.2171,188.5345,79.9155,355.761,-0.010961,-0.01051018,0.0,0 STARLINK-3995,1 52632U 22052AL  22185.58334491 -.01051018  00000-0 -10961-1 0  9990,2 52632  53.2171 188.5345 0001038  79.9155 355.7610 15.66629815  1301,6746.691999999999,91.917,369.258,367.857,0.0
52632.0,STARLINK-3995,PAYLOAD,2022-07-04 22:00:00,15.65870003,0.0001194,53.2172,186.9012,78.0568,78.1882,-0.011311,-0.01051602,0.0,0 STARLINK-3995,1 52632U 22052AL  22185.91667824 -.01051602  00000-0 -11311-1 0  9995,2 52632  53.2172 186.9012 0001194  78.0568  78.1882 15.65870003  1309,6748.875,91.962,371.546,369.934,0.0
52632.0,STARLINK-3995,PAYLOAD,2022-07-05 04:00:00,15.65298862,0.0001338,53.2174,185.68,56.283,69.7878,-0.011532,-0.0104814,0.0,0 STARLINK-3995,1 52632U 22052AL  22186.16667824 -.01048140  00000-0 -11532-1 0  9991,2 52632  53.2174 185.6800 0001338  56.2830  69.7878 15.65298862  8464,6750.516,91.995,373.285,371.478,0.0
52632.0,STARLINK-3995,PAYLOAD,2022-07-05 14:00:01,15.64351846,0.0001029,53.2173,183.6453,95.8428,218.7966,-0.012021,-0.01051352,0.0,0 STARLINK-3995,1 52632U 22052AL  22186.58334491 -.01051352  00000-0 -12021-1 0  9991,2 52632  53.2173 183.6453 0001029  95.8428 218.7966 15.64351846  1305,6753.24,92.051,375.8,374.411,0.0
52632.0,STARLINK-3995,PAYLOAD,2022-07-05 22:00:00,15.63589409,0.0001043,53.2175,182.0176,70.8935,321.5772,-0.012341,-0.01047484,0.0,0 STARLINK-3995,1 52632U 22052AL  22186.91667824 -.01047484  00000-0 -12341-1 0  9993,2 52632  53.2175 182.0176 0001043  70.8935 321.5772 15.63589409  1309,6755.436,92.096,378.005,376.596,0.0
52632.0,STARLINK-3995,PAYLOAD,2022-07-06 12:00:02,15.62261767,0.0001158,53.2171,179.1786,60.5293,16.009,-0.013009,-0.01064088,0.0,0 STARLINK-3995,1 52632U 22052AL  22187.50002315 -.01064088  00000-0 -13009-1 0  9998,2 52632  53.2171 179.1786 0001158  60.5293  16.0090 15.62261767  8678,6759.262,92.174,381.91,380.345,0.0
52632.0,STARLINK-3995,PAYLOAD,2022-07-06 14:00:01,15.62072969,0.0001274,53.2172,178.7728,69.6521,115.7368,-0.013143,-0.01066888,0.0,0 STARLINK-3995,1 52632U 22052AL  22187.58334491 -.01066888  00000-0 -13143-1 0  9998,2 52632  53.2172 178.7728 0001274  69.6521 115.7368 15.62072969  1305,6759.807,92.185,382.533,380.811,0.0
52632.0,STARLINK-3995,PAYLOAD,2022-07-06 22:00:00,15.61311193,0.0001183,53.2173,177.1508,81.1275,179.3539,-0.013486,-0.01062992,0.0,0 STARLINK-3995,1 52632U 22052AL  22187.91667824 -.01062992  00000-0 -13486-1 0  9996,2 52632  53.2173 177.1508 0001183  81.1275 179.3539 15.61311193  1309,6762.005999999999,92.23,384.671,383.071,0.0
52632.0,STARLINK-3995,PAYLOAD,2022-07-07 14:00:01,15.59793163,0.0001026,53.2173,173.917,78.2745,329.6497,-0.014311,-0.01063575,0.0,0 STARLINK-3995,1 52632U 22052AL  22188.58334491 -.01063575  00000-0 -14311-1 0  9997,2 52632  53.2173 173.9170 0001026  78.2745 329.6497 15.59793163  1304,6766.392,92.32,388.951,387.56300000000016,0.0
52632.0,STARLINK-3995,PAYLOAD,2022-07-07 20:00:01,15.59221121,9.87e-05,53.2173,172.7041,89.65299999999998,282.624,-0.014579,-0.01060282,0.0,0 STARLINK-3995,1 52632U 22052AL  22188.83334491 -.01060282  00000-0 -14579-1 0  9993,2 52632  53.2173 172.7041 0000987  89.6530 282.6240 15.59221121  8885,6768.047,92.354,390.58,389.244,0.0
52632.0,STARLINK-3995,PAYLOAD,2022-07-07 22:00:00,15.5903335,0.0001174,53.2175,172.3005,83.595,36.6831,-0.014726,-0.01063093,0.0,0 STARLINK-3995,1 52632U 22052AL  22188.91667824 -.01063093  00000-0 -14726-1 0  9998,2 52632  53.2175 172.3005 0001174  83.5950  36.6831 15.59033350  1309,6768.59,92.365,391.25,389.661,0.0
52632.0,STARLINK-3995,PAYLOAD,2022-07-08 14:00:01,15.57515833,0.0001164,53.2174,169.0774,84.7841,177.4611,-0.015639,-0.01065521,0.0,0 STARLINK-3995,1 52632U 22052AL  22189.58334491 -.01065521  00000-0 -15639-1 0  9995,2 52632  53.2174 169.0774 0001164  84.7841 177.4611 15.57515833  1304,6772.986,92.455,395.64,394.06300000000016,0.0
52632.0,STARLINK-3995,PAYLOAD,2022-07-08 22:00:01,15.56752709,0.0001083,53.2177,167.4668,79.5624,252.3643,-0.015983,-0.01058755,0.0,0 STARLINK-3995,1 52632U 22052AL  22189.91668981 -.01058755  00000-0 -15983-1 0  9999,2 52632  53.2177 167.4668 0001083  79.5624 252.3643 15.56752709  1304,6775.2,92.5,397.798,396.331,0.0
52632.0,STARLINK-3995,PAYLOAD,2022-07-09 14:00:01,15.55235739,0.0001148,53.2173,164.2545,81.9304,26.4223,-0.016966,-0.01061751,0.0,0 STARLINK-3995,1 52632U 22052AL  22190.58334491 -.01061751  00000-0 -16966-1 0  9992,2 52632  53.2173 164.2545 0001148  81.9304  26.4223 15.55235739  1305,6779.604,92.59,402.24800000000016,400.691,0.0
